{
    "links": {
        "self": "http://www.neowsapp.com/rest/v1/neo/3626031?api_key=iIulBulltgU6a56xZRHN4H3l9WmuAYTsLGpBGhQ2"
    },
    "id": "3626031",
    "neo_reference_id": "3626031",
    "name": "(2013 CY32)",
    "designation": "2013 CY32",
    "nasa_jpl_url": "http://ssd.jpl.nasa.gov/sbdb.cgi?sstr=3626031",
    "absolute_magnitude_h": 28.1,
    "estimated_diameter": {
        "kilometers": {
            "estimated_diameter_min": 0.0063760979,
            "estimated_diameter_max": 0.0142573883
        },
        "meters": {
            "estimated_diameter_min": 6.3760978988,
            "estimated_diameter_max": 14.2573883328
        },
        "miles": {
            "estimated_diameter_min": 0.0039619223,
            "estimated_diameter_max": 0.0088591276
        },
        "feet": {
            "estimated_diameter_min": 20.9189570301,
            "estimated_diameter_max": 46.7762099378
        }
    },
    "is_potentially_hazardous_asteroid": false,
    "close_approach_data": [
        {
            "close_approach_date": "2013-02-05",
            "close_approach_date_full": "2013-Feb-05 13:47",
            "epoch_date_close_approach": 1360072020000,
            "relative_velocity": {
                "kilometers_per_second": "32.8536983612",
                "kilometers_per_hour": "118273.3141003463",
                "miles_per_hour": "73490.4378641846"
            },
            "miss_distance": {
                "astronomical": "0.0011595591",
                "lunar": "0.4510684899",
                "kilometers": "173467.571499117",
                "miles": "107787.7507451346"
            },
            "orbiting_body": "Moon"
        },
        {
            "close_approach_date": "2013-02-05",
            "close_approach_date_full": "2013-Feb-05 15:53",
            "epoch_date_close_approach": 1360079580000,
            "relative_velocity": {
                "kilometers_per_second": "32.2024497091",
                "kilometers_per_hour": "115928.8189528828",
                "miles_per_hour": "72033.6597543621"
            },
            "miss_distance": {
                "astronomical": "0.000703072",
                "lunar": "0.273495008",
                "kilometers": "105178.07365664",
                "miles": "65354.624436032"
            },
            "orbiting_body": "Earth"
        }
    ],
    "orbital_data": {
        "orbit_id": "4",
        "orbit_determination_date": "2017-04-06 08:46:55",
        "first_observation_date": "2013-02-06",
        "last_observation_date": "2013-02-07",
        "data_arc_in_days": 1,
        "observations_used": 19,
        "orbit_uncertainty": "9",
        "minimum_orbit_intersection": ".000317856",
        "jupiter_tisserand_invariant": "3.152",
        "epoch_osculation": "2456330.5",
        "eccentricity": ".8684052382759989",
        "semi_major_axis": "2.030541258834549",
        "inclination": "17.92159149466089",
        "ascending_node_longitude": "136.806810593451",
        "orbital_period": "1056.85682043813",
        "perihelion_distance": ".2672085931270857",
        "perihelion_argument": "235.4104912519074",
        "aphelion_distance": "3.793873924542013",
        "perihelion_time": "2456289.259051019098",
        "mean_anomaly": "14.0480161039883",
        "mean_motion": ".3406327073243077",
        "equinox": "J2000",
        "orbit_class": {
            "orbit_class_type": "APO",
            "orbit_class_description": "Near-Earth asteroid orbits which cross the Earth’s orbit similar to that of 1862 Apollo",
            "orbit_class_range": "a (semi-major axis) > 1.0 AU; q (perihelion) < 1.017 AU"
        }
    },
    "is_sentry_object": false
}